$$SOE
2461295.500000000, A.D. 2026-Sep-12 00:00:00.0000, -3.395854014867566E+08, 2.430749505170503E+08, -3.935544629100870E+07,
2461302.500000000, A.D. 2026-Sep-19 00:00:00.0000, -3.458890010206279E+08, 2.360255542265241E+08, -3.853686233223448E+07,
2461309.500000000, A.D. 2026-Sep-26 00:00:00.0000, -3.519668863080179E+08, 2.288222719326655E+08, -3.769308802092665E+07,
2461316.500000000, A.D. 2026-Oct-03 00:00:00.0000, -3.578166940003456E+08, 2.214708462086427E+08, -3.682484709133442E+07,
2461323.500000000, A.D. 2026-Oct-10 00:00:00.0000, -3.634361437220680E+08, 2.139769752643579E+08, -3.593285914448480E+07,
2461330.500000000, A.D. 2026-Oct-17 00:00:00.0000, -3.688230334661057E+08, 2.063463163664561E+08, -3.501783998966998E+07,
2461337.500000000, A.D. 2026-Oct-24 00:00:00.0000, -3.739752353098310E+08, 1.985844892252561E+08, -3.408050200849102E+07,
2461344.500000000, A.D. 2026-Oct-31 00:00:00.0000, -3.788906913391405E+08, 1.906970792768275E+08, -3.312155455491720E+07,
2461351.500000000, A.D. 2026-Nov-07 00:00:00.0000, -3.835674094288120E+08, 1.826896409301543E+08, -3.214170441543411E+07,
2461358.500000000, A.D. 2026-Nov-14 00:00:00.0000, -3.880034586665096E+08, 1.745677016632113E+08, -3.114165627428078E+07,
2461365.500000000, A.D. 2026-Nov-21 00:00:00.0000, -3.921969662225489E+08, 1.663367676468814E+08, -3.012211296129265E+07,
2461372.500000000, A.D. 2026-Nov-28 00:00:00.0000, -3.961461166563553E+08, 1.580023278880006E+08, -2.908377563652902E+07,
2461379.500000000, A.D. 2026-Dec-05 00:00:00.0000, -3.998491500310991E+08, 1.495698562361954E+08, -2.802734429668929E+07,
2461386.500000000, A.D. 2026-Dec-12 00:00:00.0000, -4.033043586613142E+08, 1.410448143638891E+08, -2.695351836301455E+07,
2461393.500000000, A.D. 2026-Dec-19 00:00:00.0000, -4.065100843754706E+08, 1.324326557241783E+08, -2.586299717685410E+07,
2461400.500000000, A.D. 2026-Dec-26 00:00:00.0000, -4.094647164331825E+08, 1.237388296200893E+08, -2.475648046117060E+07,
2461407.500000000, A.D. 2027-Jan-02 00:00:00.0000, -4.121666898177963E+08, 1.149687851971382E+08, -2.363466878898613E+07,
2461414.500000000, A.D. 2027-Jan-09 00:00:00.0000, -4.146144837837995E+08, 1.061279753821954E+08, -2.249826406772823E+07,
2461421.500000000, A.D. 2027-Jan-16 00:00:00.0000, -4.168066206203437E+08, 9.722186078025353E+07, -2.134797004177656E+07,
2461428.500000000, A.D. 2027-Jan-23 00:00:00.0000, -4.187416645817238E+08, 8.825591349165463E+07, -2.018449282036699E+07,
2461435.500000000, A.D. 2027-Jan-30 00:00:00.0000, -4.204182207950002E+08, 7.923562080291119E+07, -1.900854145179049E+07,
2461442.500000000, A.D. 2027-Feb-06 00:00:00.0000, -4.218349337205318E+08, 7.016648909114185E+07, -1.782082855529950E+07,
2461449.500000000, A.D. 2027-Feb-13 00:00:00.0000, -4.229904856296101E+08, 6.105404916213780E+07, -1.662207086966106E+07,
2461456.500000000, A.D. 2027-Feb-20 00:00:00.0000, -4.238835974704440E+08, 5.190386223312815E+07, -1.541298956758769E+07,
2461463.500000000, A.D. 2027-Feb-27 00:00:00.0000, -4.245130307357147E+08, 4.272152335205419E+07, -1.419431072819681E+07,
2461470.500000000, A.D. 2027-Mar-06 00:00:00.0000, -4.248775873187564E+08, 3.351266418369424E+07, -1.296676608783236E+07,
2461477.500000000, A.D. 2027-Mar-13 00:00:00.0000, -4.249761089600086E+08, 2.428295721733771E+07, -1.173109375507985E+07,
2461484.500000000, A.D. 2027-Mar-20 00:00:00.0000, -4.248074774171500E+08, 1.503812056413550E+07, -1.048803885515621E+07,
2461491.500000000, A.D. 2027-Mar-27 00:00:00.0000, -4.243706151636350E+08, 5.783922798382254E+06, -9.238354167875921E+06,
2461498.500000000, A.D. 2027-Apr-03 00:00:00.0000, -4.236644864200867E+08, -3.473812201731363E+06, -7.982800782379032E+06,
2461505.500000000, A.D. 2027-Apr-10 00:00:00.0000, -4.226880984658794E+08, -1.272920038840031E+07, -6.722148772998841E+06,
2461512.500000000, A.D. 2027-Apr-17 00:00:00.0000, -4.214405032196854E+08, -2.197629266585850E+07, -5.457177900194344E+06,
2461519.500000000, A.D. 2027-Apr-24 00:00:00.0000, -4.199207990229555E+08, -3.120907005936929E+07, -4.188678349659419E+06,
2461526.500000000, A.D. 2027-May-01 00:00:00.0000, -4.181281323415796E+08, -4.042143890104608E+07, -2.917451535524428E+06,
2461533.500000000, A.D. 2027-May-08 00:00:00.0000, -4.160616990941202E+08, -4.960722528117113E+07, -1.644310935280576E+06,
2461540.500000000, A.D. 2027-May-15 00:00:00.0000, -4.137207471200460E+08, -5.876016780929455E+07, -3.700827417771332E+05,
2461547.500000000, A.D. 2027-May-22 00:00:00.0000, -4.111045813710724E+08, -6.787391127582285E+07, 9.043935986781977E+05,
2461554.500000000, A.D. 2027-May-29 00:00:00.0000, -4.082125684923372E+08, -7.694200268123472E+07, 2.178264533811275E+06,
2461561.500000000, A.D. 2027-Jun-05 00:00:00.0000, -4.050441399304181E+08, -8.595788649906661E+07, 3.450661413202945E+06,
2461568.500000000, A.D. 2027-Jun-12 00:00:00.0000, -4.015987955966986E+08, -9.491489874105752E+07, 4.720699575860415E+06,
2461575.500000000, A.D. 2027-Jun-19 00:00:00.0000, -3.978761084419377E+08, -1.038062607629512E+08, 5.987477471243188E+06,
2461582.500000000, A.D. 2027-Jun-26 00:00:00.0000, -3.938757296921759E+08, -1.126250730767917E+08, 7.250075766609371E+06,
2461589.500000000, A.D. 2027-Jul-03 00:00:00.0000, -3.895973946458470E+08, -1.213643091662495E+08, 8.507556429463752E+06,
2461596.500000000, A.D. 2027-Jul-10 00:00:00.0000, -3.850409290288811E+08, -1.300168093025068E+08, 9.758961782962017E+06,
2461603.500000000, A.D. 2027-Jul-17 00:00:00.0000, -3.802062559073223E+08, -1.385752744080525E+08, 1.100331352850337E+07,
2461610.500000000, A.D. 2027-Jul-24 00:00:00.0000, -3.750934030397027E+08, -1.470322600421681E+08, 1.223961171699999E+07,
2461617.500000000, A.D. 2027-Jul-31 00:00:00.0000, -3.697025102992983E+08, -1.553801702861757E+08, 1.346683365158577E+07,
2461624.500000000, A.D. 2027-Aug-07 00:00:00.0000, -3.640338374110569E+08, -1.636112503932351E+08, 1.468393283582569E+07,
2461631.500000000, A.D. 2027-Aug-14 00:00:00.0000, -3.580877743510411E+08, -1.717175784767210E+08, 1.588983815951414E+07,
2461638.500000000, A.D. 2027-Aug-21 00:00:00.0000, -3.518648538420054E+08, -1.796910596277401E+08, 1.708345299252966E+07,
2461645.500000000, A.D. 2027-Aug-28 00:00:00.0000, -3.453657625715919E+08, -1.875234212890803E+08, 1.826365397331914E+07,
2461652.500000000, A.D. 2027-Sep-04 00:00:00.0000, -3.385913523736956E+08, -1.952062074166092E+08, 1.942928980855017E+07,
2461659.500000000, A.D. 2027-Sep-11 00:00:00.0000, -3.315426528288365E+08, -2.027307721284459E+08, 2.057918016204056E+07,
2461666.500000000, A.D. 2027-Sep-18 00:00:00.0000, -3.242208852147498E+08, -2.100882735390524E+08, 2.171211457239956E+07,
2461673.500000000, A.D. 2027-Sep-25 00:00:00.0000, -3.166274776476698E+08, -2.172696679099122E+08, 2.282685137789670E+07,
2461680.500000000, A.D. 2027-Oct-02 00:00:00.0000, -3.087640814108580E+08, -2.242657041493243E+08, 2.392211665092985E+07,
2461687.500000000, A.D. 2027-Oct-09 00:00:00.0000, -3.006325885188293E+08, -2.310669187345726E+08, 2.499660314754319E+07,
2461694.500000000, A.D. 2027-Oct-16 00:00:00.0000, -2.922351505251328E+08, -2.376636311936758E+08, 2.604896927053925E+07,
2461701.500000000, A.D. 2027-Oct-23 00:00:00.0000, -2.835741983886061E+08, -2.440459402513524E+08, 2.707783803233729E+07,
2461708.500000000, A.D. 2027-Oct-30 00:00:00.0000, -2.746524631041092E+08, -2.502037201435000E+08, 2.808179604595013E+07,
2461715.500000000, A.D. 2027-Nov-06 00:00:00.0000, -2.654729983452150E+08, -2.561266161000296E+08, 2.905939275840689E+07,
2461722.500000000, A.D. 2027-Nov-13 00:00:00.0000, -2.560392071871729E+08, -2.618040412149872E+08, 3.000913995677768E+07,
2461729.500000000, A.D. 2027-Nov-20 00:00:00.0000, -2.463548700890675E+08, -2.672251770518940E+08, 3.092951112244682E+07,
2461736.500000000, A.D. 2027-Nov-27 00:00:00.0000, -2.364241725950277E+08, -2.723789752021649E+08, 3.181894075115673E+07,
2461743.500000000, A.D. 2027-Dec-04 00:00:00.0000, -2.262517348478417E+08, -2.772541590855435E+08, 3.267582392569748E+07,
2461750.500000000, A.D. 2027-Dec-11 00:00:00.0000, -2.158426435249110E+08, -2.818392271833826E+08, 3.349851614252062E+07,
2461757.500000000, A.D. 2027-Dec-18 00:00:00.0000, -2.052024859683771E+08, -2.861224582988796E+08, 3.428533337229951E+07,
2461764.500000000, A.D. 2027-Dec-25 00:00:00.0000, -1.943373863898364E+08, -2.900919191329940E+08, 3.503455237755272E+07,
2461771.500000000, A.D. 2028-Jan-01 00:00:00.0000, -1.832540441233289E+08, -2.937354744804134E+08, 3.574441132709517E+07,
$$EOE